STARLINK-31026          
1 58508U 23191A   24226.35072089 -.00000375  00000+0 -12671-4 0  9999
2 58508  43.0027 342.4273 0001110 201.4253 158.6543 15.02540203 39184
STARLINK-31020          
1 58509U 23191B   24226.67991022 -.00007800  00000+0 -56338-3 0  9999
2 58509  43.0055 341.4516 0002183 264.0037  96.0556 15.02508485 39131
STARLINK-30989          
1 58510U 23191C   24226.29620327  .00002184  00000+0  17659-3 0  9997
2 58510  43.0001 342.0255 0001119 277.8552  82.2163 15.02555924 39213
STARLINK-30968          
1 58511U 23191D   24226.69177438 -.00003539  00000+0 -24712-3 0  9997
2 58511  43.0046 339.8335 0002372 259.4247 100.6328 15.02515127 39225
STARLINK-30982          
1 58512U 23191E   24226.68842258 -.00003094  00000+0 -21408-3 0  9991
2 58512  43.0023 339.8084 0000615 315.7603  44.3190 15.02535155 39169
STARLINK-30998          
1 58513U 23191F   24226.68513725 -.00006171  00000+0 -44263-3 0  9999
2 58513  43.0041 339.7769 0001038 271.2913  88.7810 15.02496334 39277
STARLINK-30983          
1 58514U 23191G   24226.70831322  .00020183  00000+0  15096-2 0  9997
2 58514  43.0109 339.1084 0001665 290.4878  69.5785 15.02416949 38840
STARLINK-31017          
1 58515U 23191H   24226.44391952 -.00007339  00000+0 -16878-3 0  9999
2 58515  42.9985 254.0852 0000190 148.8151 211.2717 15.40672015 40216
STARLINK-31028          
1 58516U 23191J   24226.74489999 -.00002151  00000+0 -14420-3 0  9990
2 58516  43.0009 339.3654 0000883 260.3597  99.7146 15.02549491 39230
STARLINK-31011          
1 58517U 23191K   24226.74823479 -.00001614  00000+0 -10447-3 0  9994
2 58517  43.0028 339.3907 0000781 270.2722  89.8031 15.02539865 39282
STARLINK-31021          
1 58518U 23191L   24226.69831425 -.00012052  00000+0 -87959-3 0  9999
2 58518  43.0045 339.0047 0001290 269.9454  90.1241 15.02494485 39283
STARLINK-31010          
1 58519U 23191M   24226.70164034 -.00013773  00000+0 -10077-2 0  9994
2 58519  43.0041 338.9963 0000800 259.6515 100.4237 15.02490802 39228
STARLINK-31003          
1 58520U 23191N   24226.67509407 -.00020777  00000+0 -15291-2 0  9994
2 58520  43.0035 339.6988 0001232 265.4669  94.6032 15.02498043 39270
STARLINK-31015          
1 58521U 23191P   24226.60529051  .00001034  00000+0  91549-4 0  9990
2 58521  43.0018 340.0386 0001377 263.8879  96.1807 15.02545193 39204
STARLINK-31023          
1 58522U 23191Q   24226.60195724  .00006987  00000+0  53161-3 0  9996
2 58522  42.9980 340.0091 0000700 158.9907 201.0964 15.02546984 39232
STARLINK-30932          
1 58523U 23191R   24226.73158419  .00000069  00000+0  20246-4 0  9995
2 58523  43.0090 339.2638 0002329 261.9739  98.0839 15.02533285 39214
STARLINK-30992          
1 58524U 23191S   24226.66177495  .00003764  00000+0  29344-3 0  9995
2 58524  43.0040 339.6003 0000910 263.9942  96.0797 15.02547153 39100
STARLINK-30948          
1 58525U 23191T   24226.59198188 -.00000795  00000+0 -43819-4 0  9997
2 58525  42.9964 339.9290 0000728 187.7629 172.3202 15.02530312 39239
STARLINK-31013          
1 58526U 23191U   24226.72159421 -.00000111  00000+0  68200-5 0  9993
2 58526  43.0014 339.1876 0001048 256.0579 104.0147 15.02542863 39234
STARLINK-31001          
1 58527U 23191V   24226.70495530 -.00006758  00000+0 -48585-3 0  9992
2 58527  43.0072 338.9778 0001902 263.4472  96.6154 15.02518888 39111
STARLINK-31004          
1 58528U 23191W   24226.71829115 -.00015979  00000+0 -11719-2 0  9997
2 58528  43.0002 339.1636 0000785 260.3366  99.7388 15.02491384 39278
STARLINK-30988          
1 58529U 23191X   24226.71495281 -.00001119  00000+0 -67778-4 0  9990
2 58529  43.0024 339.1413 0000837 247.8990 112.1764 15.02533592 38744
STARLINK-31009          
1 58530U 23191Y   24226.57865191  .00000601  00000+0  59533-4 0  9990
2 58530  43.0015 339.8360 0001197 240.9157 119.1566 15.02537335 39267
STARLINK-31012          
1 58531U 23192A   24226.63687782 -.00002445  00000+0 -61661-4 0  9992
2 58531  53.1584 205.5605 0001127  88.6247 271.4885 15.34207880 39420
STARLINK-31035          
1 58532U 23192B   24226.58334491 -.00009987  00000+0 -32569-3 0  9995
2 58532  53.1568 204.4593 0001304  88.6493 288.0852 15.30181280  5924
STARLINK-31036          
1 58533U 23192C   24226.63521811 -.00003439  00000+0 -10410-3 0  9993
2 58533  53.1592 204.8636 0001295  97.7389 262.3759 15.30178559 39448
STARLINK-30936          
1 58534U 23192D   24226.21771263  .00003059  00000+0  10213-3 0  9993
2 58534  53.1594 207.2206 0001379  99.2878 260.8281 15.34237795 38178
STARLINK-31032          
1 58535U 23192E   24226.37131247 -.00009363  00000+0 -26804-3 0  9992
2 58535  53.1583 206.7475 0001499  72.6963 287.4204 15.34198515 38190
STARLINK-31037          
1 58536U 23192F   24226.35636545 -.00012026  00000+0 -42261-3 0  9997
2 58536  53.1584 205.2522 0001036  72.9710 287.1403 15.27991178 38218
STARLINK-31041          
1 58537U 23192G   24226.23170836 -.00010576  00000+0 -30434-3 0  9998
2 58537  53.1590 207.3003 0001289  96.3928 263.7222 15.34191724 38175
STARLINK-31014          
1 58538U 23192H   24226.66907162 -.00003882  00000+0 -10451-3 0  9995
2 58538  53.1603 205.0547 0001389 104.1495 255.9662 15.34200125 39388
STARLINK-31055          
1 58539U 23192J   24226.27355201 -.00004327  00000+0 -11770-3 0  9994
2 58539  53.1597 206.8494 0001233  81.3151 278.7991 15.34214270 38185
STARLINK-31019          
1 58540U 23192K   24226.67839505 -.00003619  00000+0 -96647-4 0  9994
2 58540  53.1584 205.1135 0001591  80.2516 279.8666 15.34196709 39433
STARLINK-31045          
1 58541U 23192L   24226.41943932  .00004463  00000+0  33087-3 0  9991
2 58541  53.1580 225.6962 0001554  85.2275 274.8892 15.04934571 37934
STARLINK-31030          
1 58542U 23192M   24226.66008416 -.00006077  00000+0 -16995-3 0  9992
2 58542  53.1600 204.9939 0001554 109.3310 250.7860 15.34202079 39439
STARLINK-31049          
1 58543U 23192N   24226.65509666 -.00002012  00000+0 -48751-4 0  9996
2 58543  53.1597 204.9665 0001091 100.0927 260.0198 15.34211330 39437
STARLINK-31048          
1 58544U 23192P   24226.64605463 -.00001591  00000+0 -44779-4 0  9995
2 58544  53.1570 204.1538 0001670  85.6113 274.5077 15.28015966 39456
STARLINK-31057          
1 58545U 23192Q   24226.65043371  .00011819  00000+0  36276-3 0  9995
2 58545  53.1581 204.9367 0001520 104.2726 255.8445 15.34189961 39443
STARLINK-31050          
1 58546U 23192R   24226.25025344 -.00001690  00000+0 -39176-4 0  9993
2 58546  53.1583 206.7051 0001049  76.0873 284.0246 15.34204034 39319
STARLINK-31063          
1 58547U 23192S   24226.36134077  .00004813  00000+0  15423-3 0  9996
2 58547  53.1597 204.5096 0001303  71.5510 288.5634 15.34245943 38224
STARLINK-31016          
1 58548U 23192T   24226.63669732 -.00003500  00000+0 -11375-3 0  9994
2 58548  53.1556 204.0996 0001719  95.5206 264.5989 15.28013618 39440
STARLINK-31053          
1 58549U 23192U   24226.58334491 -.00033640  00000+0 -11284-2 0  9996
2 58549  53.1588 205.0492 0001655  94.9115 356.7700 15.30209087  5964
STARLINK-31056          
1 58550U 23192V   24226.19793624 -.00018907  00000+0 -62816-3 0  9999
2 58550  53.1587 206.3838 0001191 117.2558 242.8564 15.30184044 38186
STARLINK-30999          
1 58551U 23192W   24226.32709783 -.00013736  00000+0 -39850-3 0  9995
2 58551  53.1600 197.1220 0001279  89.9371 270.1779 15.34214676 38327
STARLINK-31046          
1 58552U 23192X   24226.24754973  .00005378  00000+0  19369-3 0  9992
2 58552  53.1565 206.6844 0001203  79.0398 281.0738 15.30181092 39375
STARLINK-31044          
1 58589U 23200A   24226.55177719  .00001055  00000+0  93149-4 0  9990
2 58589  43.0025  44.1475 0001862 272.9593  87.1036 15.02535238 37380
STARLINK-31062          
1 58590U 23200B   24226.76934857 -.00007221  00000+0 -52044-3 0  9990
2 58590  42.9995  44.9225 0001333 267.1915  92.8774 15.02503996 37427
STARLINK-31043          
1 58591U 23200C   24226.80918176 -.00013934  00000+0 -10193-2 0  9998
2 58591  43.0052  44.3719 0001972 274.4591  85.6026 15.02503875 37433
STARLINK-31096          
1 58592U 23200D   24226.53106484  .00009250  00000+0  69880-3 0  9992
2 58592  43.0048  45.7266 0001419 268.6491  91.4189 15.02544387 37361
STARLINK-31094          
1 58593U 23200E   24226.54191646 -.00005516  00000+0 -39375-3 0  9997
2 58593  43.0024  44.9476 0001048 271.7084  88.3638 15.02519024 37376
STARLINK-31075          
1 58594U 23200F   24226.47210610  .00007920  00000+0  60076-3 0  9994
2 58594  43.0017  45.2867 0000644 265.6210  94.4559 15.02533442 37360
STARLINK-30857          
1 58595U 23200G   24226.53191763  .00002182  00000+0  17655-3 0  9999
2 58595  43.0019  44.8792 0001098 274.5915  85.4802 15.02542113 37377
STARLINK-31059          
1 58596U 23200H   24226.80523559 -.00008386  00000+0 -31148-3 0  9999
2 58596  43.0022   4.2201 0001016 263.0787  96.9948 15.25872067 37903
STARLINK-31087          
1 58597U 23200J   24226.85766764 -.00001863  00000+0 -12295-3 0  9997
2 58597  43.0021  43.0184 0000878 273.9077  86.1664 15.02521236 37327
STARLINK-31079          
1 58598U 23200K   24226.85433910 -.00002234  00000+0 -15044-3 0  9990
2 58598  43.0022  42.9935 0000826 266.3045  93.7703 15.02520330 37451
STARLINK-31072          
1 58599U 23200L   24226.81059208  .00139330  00000+0  47471-2 0  9995
2 58599  43.0032   9.4775 0004406 318.9797  41.0724 15.29126575 37832
STARLINK-31052          
1 58600U 23200M   24226.85100380 -.00006376  00000+0 -45751-3 0  9995
2 58600  43.0029  42.9645 0001634 263.3433  96.7224 15.02521779 37444
STARLINK-31074          
1 58601U 23200N   24226.84767044 -.00011070  00000+0 -80638-3 0  9991
2 58601  43.0036  42.9415 0001150 280.8661  79.2051 15.02504252 37449
STARLINK-31071          
1 58602U 23200P   24226.42937075 -.00024725  00000+0 -93924-3 0  9992
2 58602  42.9978   1.3220 0001533 233.1147 126.9563 15.25884845 37870
